IRIDIUM 7               
1 24793U 97020B   24282.72176295  .00002911  00000+0  10063-2 0  9994
2 24793  86.3901 282.2609 0002129  96.3578 263.7861 14.35483672435812
IRIDIUM 5               
1 24795U 97020D   24282.81263342  .00017540  00000+0  15952-2 0  9992
2 24795  86.3970 199.1875 0115365 319.4753  39.7924 14.90096336447971
IRIDIUM 4               
1 24796U 97020E   24282.72507078  .00002085  00000+0  70562-3 0  9997
2 24796  86.3892 279.2986 0002167  89.1489 270.9956 14.36405954436365
IRIDIUM 16              
1 24841U 97030F   24282.80057480  .00001770  00000+0  57682-3 0  9993
2 24841  86.4005 310.9216 0003477 131.5522 228.5974 14.38201866430863
IRIDIUM 911             
1 24842U 97030G   24283.15267177  .00002737  00000+0  74768-3 0  9997
2 24842  86.4429 309.7962 0013159 206.1827 153.8712 14.46939908438753
IRIDIUM 17              
1 24870U 97034B   24282.77149634  .00002042  00000+0  67857-3 0  9996
2 24870  86.3989 340.5033 0003755 104.4850 255.6764 14.37315451427468
IRIDIUM 920             
1 24871U 97034C   24282.62669142  .00002807  00000+0  86695-3 0  9992
2 24871  86.3966 320.3775 0011444 180.8449 179.2733 14.41012292430349
